OBJECT_NAME,OBJECT_ID,EPOCH,MEAN_MOTION,ECCENTRICITY,INCLINATION,RA_OF_ASC_NODE,ARG_OF_PERICENTER,MEAN_ANOMALY,EPHEMERIS_TYPE,CLASSIFICATION_TYPE,NORAD_CAT_ID,ELEMENT_SET_NO,REV_AT_EPOCH,BSTAR,MEAN_MOTION_DOT,MEAN_MOTION_DDOT
STARLINK-32296,2024-183R,2026-06-16T21:49:40.537344,15.31695501,.0001509,53.1622,40.8514,94.5539,265.5635,0,U,61524,999,9485,.21096E-3,.6186E-4,0
STARLINK-32298,2024-183S,2026-06-16T22:16:33.672864,15.31704396,.0001635,53.1627,40.9623,93.0225,267.0963,0,U,61525,999,9485,.90222E-5,-.85E-6,0
STARLINK-32293,2024-183T,2026-06-16T22:36:36.569952,15.30201310,.0001245,53.1606,41.7573,78.6115,281.5026,0,U,61526,999,9484,.15608E-3,.4266E-4,0
STARLINK-32313,2024-183U,2026-06-16T22:27:30.781152,15.30187887,.0001247,53.1616,41.7226,111.0192,249.0943,0,U,61527,999,9484,-.77056E-5,-.587E-5,0
STARLINK-32319,2024-183V,2026-06-16T22:35:05.798976,15.30205506,.000124,53.1610,41.7509,94.7110,265.4032,0,U,61528,999,9484,.19028E-4,.204E-5,0
STARLINK-32351,2024-183W,2026-06-16T21:44:01.235040,15.30205253,.0001544,53.1624,38.7146,95.0765,265.0412,0,U,61529,999,9488,.69933E-4,.1713E-4,0
STARLINK-32261,2024-183X,2026-06-16T22:50:10.641120,15.31702574,.0001233,53.1601,41.1285,89.1452,270.9691,0,U,61530,999,9485,.11097E-4,-.21E-6,0
STARLINK-32358,2024-183Y,2026-06-16T09:02:16.892160,15.49304662,.00008419,53.1596,38.9535,86.1628,273.9477,0,U,61531,999,9483,-.3256915E-5,-.629E-5,0
STARLINK-11354 [DTC],2024-184A,2026-06-17T01:28:38.462592,15.69709819,.0001123,53.1604,106.4833,87.2675,272.8471,0,U,61532,999,9602,.12447E-4,.92E-5,0
STARLINK-11323 [DTC],2024-184B,2026-06-17T01:14:30.921792,15.69708762,.0001235,53.1594,106.4160,60.7992,299.3150,0,U,61533,999,9602,.12752E-4,.956E-5,0
STARLINK-11338 [DTC],2024-184C,2026-06-17T01:21:34.983360,15.69692317,.0001072,53.1585,106.4507,91.3693,268.7448,0,U,61534,999,9602,.35885E-4,.3758E-4,0
STARLINK-11362 [DTC],2024-184D,2026-06-17T02:32:04.193376,15.69711910,.0000959,53.1597,106.0396,75.7170,284.3955,0,U,61535,999,9603,.15049E-4,.1235E-4,0
STARLINK-11295 [DTC],2024-184E,2026-06-17T02:39:08.231616,15.69704770,.0001015,53.1587,106.0686,73.1802,286.9327,0,U,61536,999,9603,.12874E-4,.971E-5,0
STARLINK-11325 [DTC],2024-184G,2026-06-17T02:17:56.685408,15.69688181,.0000997,53.1589,105.9751,90.5895,269.5238,0,U,61538,999,9603,.42996E-4,.4619E-4,0
STARLINK-11332 [DTC],2024-184H,2026-06-17T02:10:52.900320,15.69710042,.0000902,53.1588,105.9625,90.2740,269.8382,0,U,61539,999,9603,.10562E-4,.691E-5,0
STARLINK-11350 [DTC],2024-184J,2026-06-17T02:03:49.720032,15.69692848,.0001177,53.1594,105.9083,108.0862,252.0284,0,U,61540,999,9603,.22248E-4,.2105E-4,0
STARLINK-11357 [DTC],2024-184K,2026-06-17T01:56:55.725792,15.69686513,.0001166,53.1601,106.6108,77.5573,282.5575,0,U,61541,999,9602,-.21105E-4,-.3142E-4,0
STARLINK-11322 [DTC],2024-184L,2026-06-17T01:49:49.730592,15.69703681,.0000864,53.1585,106.5778,97.3026,262.8090,0,U,61542,999,9708,-.24937E-4,-.3607E-4,0
STARLINK-11364 [DTC],2024-184M,2026-06-17T01:42:46.249632,15.69702202,.0000574,53.1575,106.5433,126.3266,233.7805,0,U,61543,999,9602,.37592E-5,-.132E-5,0
STARLINK-11349 [DTC],2024-184N,2026-06-17T01:35:42.518112,15.69705326,.0001013,53.1590,106.5116,95.6050,264.5084,0,U,61544,999,9602,.60605E-5,.146E-5,0
STARLINK-32406,2024-184P,2026-06-16T23:35:22.917696,15.34406891,.0001212,53.1608,272.4218,85.6992,274.4149,0,U,61545,999,9371,-.10611E-4,-.735E-5,0
STARLINK-32445,2024-184Q,2026-06-17T00:32:49.100064,15.34390900,.0001272,53.1611,271.9656,86.4049,273.7099,0,U,61546,999,9372,.20546E-3,.657E-4,0
STARLINK-32411,2024-184R,2026-06-16T23:53:34.200672,15.34392661,.0001349,53.1608,272.4972,66.0786,294.0358,0,U,61547,999,9371,.55008E-4,.1482E-4,0
STARLINK-32424,2024-184S,2026-06-16T13:45:20.625696,15.34401635,.0001137,53.1618,274.1368,98.2597,261.8534,0,U,61548,999,9365,.28302E-5,-.281E-5,0
STARLINK-32389,2024-184T,2026-06-17T00:19:10.309728,15.30188616,.0001414,53.1610,272.6149,87.2031,272.9132,0,U,61549,999,9371,.55394E-4,.1281E-4,0
STARLINK-32476,2024-184U,2026-06-16T13:54:26.436096,15.34398042,.0001582,53.1609,274.1768,103.0535,257.0644,0,U,61550,999,9365,.13133E-3,.4063E-4,0
STARLINK-32366,2024-184V,2026-06-17T00:23:44.813760,15.34384189,.0001042,53.1622,271.9246,80.2996,279.8124,0,U,61551,999,9372,.47366E-4,.1224E-4,0
QIANFAN-19,2024-185A,2026-06-17T03:25:54.303168,14.14476479,.0009158,88.9839,56.5785,70.3600,289.8575,0,U,61552,999,9601,.17003E-3,.34E-5,0
QIANFAN-20,2024-185B,2026-06-17T02:45:55.770048,14.09020635,.000753,88.9836,57.0906,103.1566,257.0459,0,U,61553,999,9573,.22698E-3,.407E-5,0
QIANFAN-21,2024-185C,2026-06-17T03:06:42.800256,14.22854583,.0012685,88.9755,55.1463,110.2324,250.0233,0,U,61554,999,9647,.2013E-3,.467E-5,0
