STARLINK-32296          
1 61524U 24183R   26167.90949696  .00006186  00000+0  21096-3 0  9991
2 61524  53.1622  40.8514 0001509  94.5539 265.5635 15.31695501 94855
STARLINK-32298          
1 61525U 24183S   26167.92816751 -.00000085  00000+0  90222-5 0  9991
2 61525  53.1627  40.9623 0001635  93.0225 267.0963 15.31704396 94853
STARLINK-32293          
1 61526U 24183T   26167.94208993  .00004266  00000+0  15608-3 0  9994
2 61526  53.1606  41.7573 0001245  78.6115 281.5026 15.30201310 94845
STARLINK-32313          
1 61527U 24183U   26167.93577293 -.00000587  00000+0 -77056-5 0  9997
2 61527  53.1616  41.7226 0001247 111.0192 249.0943 15.30187887 94840
STARLINK-32319          
1 61528U 24183V   26167.94103934  .00000204  00000+0  19028-4 0  9994
2 61528  53.1610  41.7509 0001240  94.7110 265.4032 15.30205506 94849
STARLINK-32351          
1 61529U 24183W   26167.90556985  .00001713  00000+0  69933-4 0  9995
2 61529  53.1624  38.7146 0001544  95.0765 265.0412 15.30205253 94886
STARLINK-32261          
1 61530U 24183X   26167.95151205 -.00000021  00000+0  11097-4 0  9998
2 61530  53.1601  41.1285 0001233  89.1452 270.9691 15.31702574 94857
STARLINK-32358          
1 61531U 24183Y   26167.37658440 -.00000629  00000+0 -32569-5 0  9991
2 61531  53.1596  38.9535 0000841  86.1628 273.9477 15.49304662 94837
STARLINK-11354 [DTC]    
1 61532U 24184A   26168.06155628  .00000920  00000+0  12447-4 0  9994
2 61532  53.1604 106.4833 0001123  87.2675 272.8471 15.69709819 96028
STARLINK-11323 [DTC]    
1 61533U 24184B   26168.05174678  .00000956  00000+0  12752-4 0  9998
2 61533  53.1594 106.4160 0001235  60.7992 299.3150 15.69708762 96026
STARLINK-11338 [DTC]    
1 61534U 24184C   26168.05665490  .00003758  00000+0  35885-4 0  9991
2 61534  53.1585 106.4507 0001072  91.3693 268.7448 15.69692317 96027
STARLINK-11362 [DTC]    
1 61535U 24184D   26168.10560409  .00001235  00000+0  15049-4 0  9990
2 61535  53.1597 106.0396 0000959  75.7170 284.3955 15.69711910 96031
STARLINK-11295 [DTC]    
1 61536U 24184E   26168.11051194  .00000971  00000+0  12874-4 0  9997
2 61536  53.1587 106.0686 0001015  73.1802 286.9327 15.69704770 96038
STARLINK-11325 [DTC]    
1 61538U 24184G   26168.09579497  .00004619  00000+0  42996-4 0  9998
2 61538  53.1589 105.9751 0000997  90.5895 269.5238 15.69688181 96031
STARLINK-11332 [DTC]    
1 61539U 24184H   26168.09089005  .00000691  00000+0  10562-4 0  9990
2 61539  53.1588 105.9625 0000902  90.2740 269.8382 15.69710042 96038
STARLINK-11350 [DTC]    
1 61540U 24184J   26168.08599213  .00002105  00000+0  22248-4 0  9994
2 61540  53.1594 105.9083 0001177 108.0862 252.0284 15.69692848 96031
STARLINK-11357 [DTC]    
1 61541U 24184K   26168.08120053 -.00003142  00000+0 -21105-4 0  9992
2 61541  53.1601 106.6108 0001166  77.5573 282.5575 15.69686513 96026
STARLINK-11322 [DTC]    
1 61542U 24184L   26168.07627003 -.00003607  00000+0 -24937-4 0  9991
2 61542  53.1585 106.5778 0000864  97.3026 262.8090 15.69703681 97083
STARLINK-11364 [DTC]    
1 61543U 24184M   26168.07136863 -.00000132  00000+0  37592-5 0  9992
2 61543  53.1575 106.5433 0000574 126.3266 233.7805 15.69702202 96020
STARLINK-11349 [DTC]    
1 61544U 24184N   26168.06646433  .00000146  00000+0  60605-5 0  9996
2 61544  53.1590 106.5116 0001013  95.6050 264.5084 15.69705326 96025
STARLINK-32406          
1 61545U 24184P   26167.98290414 -.00000735  00000+0 -10611-4 0  9998
2 61545  53.1608 272.4218 0001212  85.6992 274.4149 15.34406891 93719
STARLINK-32445          
1 61546U 24184Q   26168.02279051  .00006570  00000+0  20546-3 0  9997
2 61546  53.1611 271.9656 0001272  86.4049 273.7099 15.34390900 93722
STARLINK-32411          
1 61547U 24184R   26167.99553473  .00001482  00000+0  55008-4 0  9995
2 61547  53.1608 272.4972 0001349  66.0786 294.0358 15.34392661 93712
STARLINK-32424          
1 61548U 24184S   26167.57315539 -.00000281  00000+0  28302-5 0  9994
2 61548  53.1618 274.1368 0001137  98.2597 261.8534 15.34401635 93657
STARLINK-32389          
1 61549U 24184T   26168.01331377  .00001281  00000+0  55394-4 0  9993
2 61549  53.1610 272.6149 0001414  87.2031 272.9132 15.30188616 93710
STARLINK-32476          
1 61550U 24184U   26167.57947264  .00004063  00000+0  13133-3 0  9998
2 61550  53.1609 274.1768 0001582 103.0535 257.0644 15.34398042 93651
STARLINK-32366          
1 61551U 24184V   26168.01649090  .00001224  00000+0  47366-4 0  9997
2 61551  53.1622 271.9246 0001042  80.2996 279.8124 15.34384189 93721
QIANFAN-19              
1 61552U 24185A   26168.14298962  .00000340  00000+0  17003-3 0  9993
2 61552  88.9839  56.5785 0009158  70.3600 289.8575 14.14476479 96018
QIANFAN-20              
1 61553U 24185B   26168.11522882  .00000407  00000+0  22698-3 0  9992
2 61553  88.9836  57.0906 0007530 103.1566 257.0459 14.09020635 95734
QIANFAN-21              
1 61554U 24185C   26168.12966204  .00000467  00000+0  20130-3 0  9999
2 61554  88.9755  55.1463 0012685 110.2324 250.0233 14.22854583 96477
